[
  {
    "COMMENT": "GENERATED VIA SPACETRACK.ORG API",
    "ORIGINATOR": "JSPOC",
    "NORAD_CAT_ID": "40076",
    "OBJECT_NAME": "TDS 1",
    "OBJECT_TYPE": "PAYLOAD",
    "CLASSIFICATION_TYPE": "U",
    "INTLDES": "14037H",
    "EPOCH": "2017-05-08 12:35:50",
    "EPOCH_MICROSECONDS": "181504",
    "MEAN_MOTION": "14.81323803",
    "ECCENTRICITY": "0.00055",
    "INCLINATION": "98.326",
    "RA_OF_ASC_NODE": "238.0248",
    "ARG_OF_PERICENTER": "189.5051",
    "MEAN_ANOMALY": "170.606",
    "EPHEMERIS_TYPE": "0",
    "ELEMENT_SET_NO": "999",
    "REV_AT_EPOCH": "15315",
    "BSTAR": "1.4892e-05",
    "MEAN_MOTION_DOT": "5.9e-07",
    "MEAN_MOTION_DDOT": "0",
    "FILE": "2165187",
    "TLE_LINE0": "0 TDS 1",
    "TLE_LINE1": "1 40076U 14037H   17128.52488636 +.00000059 +00000-0 +14892-4 0  9995",
    "TLE_LINE2": "2 40076 098.3260 238.0248 0005500 189.5051 170.6060 14.81323803153151",
    "OBJECT_ID": "2014-037H",
    "OBJECT_NUMBER": "40076",
    "SEMIMAJOR_AXIS": "7003.285",
    "PERIOD": "97.210",
    "APOGEE": "629.002",
    "PERIGEE": "621.298"
  },
  {
    "COMMENT": "GENERATED VIA SPACETRACK.ORG API",
    "ORIGINATOR": "JSPOC",
    "NORAD_CAT_ID": "40076",
    "OBJECT_NAME": "TDS 1",
    "OBJECT_TYPE": "PAYLOAD",
    "CLASSIFICATION_TYPE": "U",
    "INTLDES": "14037H",
    "EPOCH": "2017-05-08 20:42:10",
    "EPOCH_MICROSECONDS": "882944",
    "MEAN_MOTION": "14.81323981",
    "ECCENTRICITY": "0.0005537",
    "INCLINATION": "98.3261",
    "RA_OF_ASC_NODE": "238.3758",
    "ARG_OF_PERICENTER": "188.2101",
    "MEAN_ANOMALY": "171.9028",
    "EPHEMERIS_TYPE": "0",
    "ELEMENT_SET_NO": "999",
    "REV_AT_EPOCH": "15320",
    "BSTAR": "1.6121e-05",
    "MEAN_MOTION_DOT": "6.9e-07",
    "MEAN_MOTION_DDOT": "0",
    "FILE": "2165188",
    "TLE_LINE0": "0 TDS 1",
    "TLE_LINE1": "1 40076U 14037H   17128.86262596 +.00000069 +00000-0 +16121-4 0  9995",
    "TLE_LINE2": "2 40076 098.3261 238.3758 0005537 188.2101 171.9028 14.81323981153204",
    "OBJECT_ID": "2014-037H",
    "OBJECT_NUMBER": "40076",
    "SEMIMAJOR_AXIS": "7003.285",
    "PERIOD": "97.210",
    "APOGEE": "629.027",
    "PERIGEE": "621.272"
  },
  {
    "COMMENT": "GENERATED VIA SPACETRACK.ORG API",
    "ORIGINATOR": "JSPOC",
    "NORAD_CAT_ID": "40076",
    "OBJECT_NAME": "TDS 1",
    "OBJECT_TYPE": "PAYLOAD",
    "CLASSIFICATION_TYPE": "U",
    "INTLDES": "14037H",
    "EPOCH": "2017-05-09 12:54:52",
    "EPOCH_MICROSECONDS": "286688",
    "MEAN_MOTION": "14.81324051",
    "ECCENTRICITY": "0.0005627",
    "INCLINATION": "98.3263",
    "RA_OF_ASC_NODE": "239.0774",
    "ARG_OF_PERICENTER": "185.4161",
    "MEAN_ANOMALY": "174.6996",
    "EPHEMERIS_TYPE": "0",
    "ELEMENT_SET_NO": "999",
    "REV_AT_EPOCH": "15330",
    "BSTAR": "1.4317e-05",
    "MEAN_MOTION_DOT": "5.4e-07",
    "MEAN_MOTION_DDOT": "0",
    "FILE": "2165189",
    "TLE_LINE0": "0 TDS 1",
    "TLE_LINE1": "1 40076U 14037H   17129.53810517 +.00000054 +00000-0 +14317-4 0  9991",
    "TLE_LINE2": "2 40076 098.3263 239.0774 0005627 185.4161 174.6996 14.81324051153301",
    "OBJECT_ID": "2014-037H",
    "OBJECT_NUMBER": "40076",
    "SEMIMAJOR_AXIS": "7003.284",
    "PERIOD": "97.210",
    "APOGEE": "629.090",
    "PERIGEE": "621.209"
  },
  {
    "COMMENT": "GENERATED VIA SPACETRACK.ORG API",
    "ORIGINATOR": "JSPOC",
    "NORAD_CAT_ID": "40076",
    "OBJECT_NAME": "TDS 1",
    "OBJECT_TYPE": "PAYLOAD",
    "CLASSIFICATION_TYPE": "U",
    "INTLDES": "14037H",
    "EPOCH": "2017-05-09 21:01:12",
    "EPOCH_MICROSECONDS": "973440",
    "MEAN_MOTION": "14.81324241",
    "ECCENTRICITY": "0.0005646",
    "INCLINATION": "98.3264",
    "RA_OF_ASC_NODE": "239.4283",
    "ARG_OF_PERICENTER": "184.2315",
    "MEAN_ANOMALY": "175.8855",
    "EPHEMERIS_TYPE": "0",
    "ELEMENT_SET_NO": "999",
    "REV_AT_EPOCH": "15335",
    "BSTAR": "1.5401e-05",
    "MEAN_MOTION_DOT": "6.3e-07",
    "MEAN_MOTION_DDOT": "0",
    "FILE": "2165191",
    "TLE_LINE0": "0 TDS 1",
    "TLE_LINE1": "1 40076U 14037H   17129.87584460 +.00000063 +00000-0 +15401-4 0  9998",
    "TLE_LINE2": "2 40076 098.3264 239.4283 0005646 184.2315 175.8855 14.81324241153353",
    "OBJECT_ID": "2014-037H",
    "OBJECT_NUMBER": "40076",
    "SEMIMAJOR_AXIS": "7003.284",
    "PERIOD": "97.210",
    "APOGEE": "629.103",
    "PERIGEE": "621.195"
  },
  {
    "COMMENT": "GENERATED VIA SPACETRACK.ORG API",
    "ORIGINATOR": "JSPOC",
    "NORAD_CAT_ID": "40076",
    "OBJECT_NAME": "TDS 1",
    "OBJECT_TYPE": "PAYLOAD",
    "CLASSIFICATION_TYPE": "U",
    "INTLDES": "14037H",
    "EPOCH": "2017-05-10 05:07:33",
    "EPOCH_MICROSECONDS": "663648",
    "MEAN_MOTION": "14.81324276",
    "ECCENTRICITY": "0.0005737",
    "INCLINATION": "98.3265",
    "RA_OF_ASC_NODE": "239.7794",
    "ARG_OF_PERICENTER": "182.7883",
    "MEAN_ANOMALY": "177.3302",
    "EPHEMERIS_TYPE": "0",
    "ELEMENT_SET_NO": "999",
    "REV_AT_EPOCH": "15340",
    "BSTAR": "1.4564e-05",
    "MEAN_MOTION_DOT": "5.6e-07",
    "MEAN_MOTION_DDOT": "0",
    "FILE": "2165190",
    "TLE_LINE0": "0 TDS 1",
    "TLE_LINE1": "1 40076U 14037H   17130.21358407 +.00000056 +00000-0 +14564-4 0  9999",
    "TLE_LINE2": "2 40076 098.3265 239.7794 0005737 182.7883 177.3302 14.81324276153406",
    "OBJECT_ID": "2014-037H",
    "OBJECT_NUMBER": "40076",
    "SEMIMAJOR_AXIS": "7003.284",
    "PERIOD": "97.210",
    "APOGEE": "629.166",
    "PERIGEE": "621.131"
  },
  {
    "COMMENT": "GENERATED VIA SPACETRACK.ORG API",
    "ORIGINATOR": "JSPOC",
    "NORAD_CAT_ID": "40076",
    "OBJECT_NAME": "TDS 1",
    "OBJECT_TYPE": "PAYLOAD",
    "CLASSIFICATION_TYPE": "U",
    "INTLDES": "14037H",
    "EPOCH": "2017-05-10 13:13:54",
    "EPOCH_MICROSECONDS": "346944",
    "MEAN_MOTION": "14.81324338",
    "ECCENTRICITY": "0.0005775",
    "INCLINATION": "98.3264",
    "RA_OF_ASC_NODE": "240.13",
    "ARG_OF_PERICENTER": "181.8639",
    "MEAN_ANOMALY": "178.2554",
    "EPHEMERIS_TYPE": "0",
    "ELEMENT_SET_NO": "999",
    "REV_AT_EPOCH": "15345",
    "BSTAR": "1.3768e-05",
    "MEAN_MOTION_DOT": "5e-07",
    "MEAN_MOTION_DDOT": "0",
    "FILE": "2165192",
    "TLE_LINE0": "0 TDS 1",
    "TLE_LINE1": "1 40076U 14037H   17130.55132346 +.00000050 +00000-0 +13768-4 0  9997",
    "TLE_LINE2": "2 40076 098.3264 240.1300 0005775 181.8639 178.2554 14.81324338153458",
    "OBJECT_ID": "2014-037H",
    "OBJECT_NUMBER": "40076",
    "SEMIMAJOR_AXIS": "7003.283",
    "PERIOD": "97.210",
    "APOGEE": "629.193",
    "PERIGEE": "621.104"
  },
  {
    "COMMENT": "GENERATED VIA SPACETRACK.ORG API",
    "ORIGINATOR": "JSPOC",
    "NORAD_CAT_ID": "40076",
    "OBJECT_NAME": "TDS 1",
    "OBJECT_TYPE": "PAYLOAD",
    "CLASSIFICATION_TYPE": "U",
    "INTLDES": "14037H",
    "EPOCH": "2017-05-10 19:42:58",
    "EPOCH_MICROSECONDS": "895136",
    "MEAN_MOTION": "14.8132445",
    "ECCENTRICITY": "0.0005803",
    "INCLINATION": "98.3266",
    "RA_OF_ASC_NODE": "240.4112",
    "ARG_OF_PERICENTER": "180.7681",
    "MEAN_ANOMALY": "179.3524",
    "EPHEMERIS_TYPE": "0",
    "ELEMENT_SET_NO": "999",
    "REV_AT_EPOCH": "15349",
    "BSTAR": "1.4345e-05",
    "MEAN_MOTION_DOT": "5.5e-07",
    "MEAN_MOTION_DDOT": "0",
    "FILE": "2165194",
    "TLE_LINE0": "0 TDS 1",
    "TLE_LINE1": "1 40076U 14037H   17130.82151499 +.00000055 +00000-0 +14345-4 0  9994",
    "TLE_LINE2": "2 40076 098.3266 240.4112 0005803 180.7681 179.3524 14.81324450153499",
    "OBJECT_ID": "2014-037H",
    "OBJECT_NUMBER": "40076",
    "SEMIMAJOR_AXIS": "7003.283",
    "PERIOD": "97.210",
    "APOGEE": "629.212",
    "PERIGEE": "621.084"
  },
  {
    "COMMENT": "GENERATED VIA SPACETRACK.ORG API",
    "ORIGINATOR": "JSPOC",
    "NORAD_CAT_ID": "40076",
    "OBJECT_NAME": "TDS 1",
    "OBJECT_TYPE": "PAYLOAD",
    "CLASSIFICATION_TYPE": "U",
    "INTLDES": "14037H",
    "EPOCH": "2017-05-11 05:26:35",
    "EPOCH_MICROSECONDS": "750688",
    "MEAN_MOTION": "14.81324394",
    "ECCENTRICITY": "0.0005817",
    "INCLINATION": "98.3267",
    "RA_OF_ASC_NODE": "240.832",
    "ARG_OF_PERICENTER": "179.6428",
    "MEAN_ANOMALY": "180.4793",
    "EPHEMERIS_TYPE": "0",
    "ELEMENT_SET_NO": "999",
    "REV_AT_EPOCH": "15355",
    "BSTAR": "1.2513e-05",
    "MEAN_MOTION_DOT": "4e-07",
    "MEAN_MOTION_DDOT": "0",
    "FILE": "2165193",
    "TLE_LINE0": "0 TDS 1",
    "TLE_LINE1": "1 40076U 14037H   17131.22680267 +.00000040 +00000-0 +12513-4 0  9998",
    "TLE_LINE2": "2 40076 098.3267 240.8320 0005817 179.6428 180.4793 14.81324394153551",
    "OBJECT_ID": "2014-037H",
    "OBJECT_NUMBER": "40076",
    "SEMIMAJOR_AXIS": "7003.283",
    "PERIOD": "97.210",
    "APOGEE": "629.222",
    "PERIGEE": "621.074"
  },
  {
    "COMMENT": "GENERATED VIA SPACETRACK.ORG API",
    "ORIGINATOR": "JSPOC",
    "NORAD_CAT_ID": "40076",
    "OBJECT_NAME": "TDS 1",
    "OBJECT_TYPE": "PAYLOAD",
    "CLASSIFICATION_TYPE": "U",
    "INTLDES": "14037H",
    "EPOCH": "2017-05-11 13:32:56",
    "EPOCH_MICROSECONDS": "439168",
    "MEAN_MOTION": "14.8132445",
    "ECCENTRICITY": "0.0005828",
    "INCLINATION": "98.3266",
    "RA_OF_ASC_NODE": "241.1829",
    "ARG_OF_PERICENTER": "178.6291",
    "MEAN_ANOMALY": "181.4939",
    "EPHEMERIS_TYPE": "0",
    "ELEMENT_SET_NO": "999",
    "REV_AT_EPOCH": "15360",
    "BSTAR": "1.2063e-05",
    "MEAN_MOTION_DOT": "3.7e-07",
    "MEAN_MOTION_DDOT": "0",
    "FILE": "2165195",
    "TLE_LINE0": "0 TDS 1",
    "TLE_LINE1": "1 40076U 14037H   17131.56454212 +.00000037 +00000-0 +12063-4 0  9990",
    "TLE_LINE2": "2 40076 098.3266 241.1829 0005828 178.6291 181.4939 14.81324450153609",
    "OBJECT_ID": "2014-037H",
    "OBJECT_NUMBER": "40076",
    "SEMIMAJOR_AXIS": "7003.283",
    "PERIOD": "97.210",
    "APOGEE": "629.230",
    "PERIGEE": "621.067"
  }
]
